NORAD_CAT_ID,OBJECT_NAME,OBJECT_TYPE,EPOCH,MEAN_MOTION,ECCENTRICITY,INCLINATION,RA_OF_ASC_NODE,ARG_OF_PERICENTER,MEAN_ANOMALY,BSTAR,MEAN_MOTION_DOT,MEAN_MOTION_DDOT,TLE_LINE0,TLE_LINE1,TLE_LINE2,SEMIMAJOR_AXIS,PERIOD,APOGEE,PERIGEE,DECAYED
55748.0,STARLINK-5580,PAYLOAD,2024-08-11 02:45:51,14.98323344,0.0003298,69.9983,255.7229,267.6163,92.4619,0.00015548,1.762e-05,0.0,0 STARLINK-5580,1 55748U 23028H   24224.11517979  .00001762  00000-0  15548-3 0  9990,2 55748  69.9983 255.7229 0003298 267.6163  92.4619 14.98323344 79828,6950.213,96.107,574.371,569.786,0.0
55748.0,STARLINK-5580,PAYLOAD,2024-08-11 18:47:11,14.98359878,0.0003425,69.9987,254.0394,267.0777,92.999,-0.000469,-5.689e-05,0.0,0 STARLINK-5580,1 55748U 23028H   24224.78276845 -.00005689  00000-0 -46900-3 0  9997,2 55748  69.9987 254.0394 0003425 267.0777  92.9990 14.98359878 79923,6950.1,96.105,574.346,569.585,0.0
55748.0,STARLINK-5580,PAYLOAD,2024-08-12 04:24:00,14.98332474,0.0003254,69.9984,253.0292,267.6675,92.4112,0.00010773,1.193e-05,0.0,0 STARLINK-5580,1 55748U 23028H   24225.18333590  .00001193  00000-0  10773-3 0  9996,2 55748  69.9984 253.0292 0003254 267.6675  92.4112 14.98332474 79989,6950.185,96.107,574.312,569.789,0.0
55748.0,STARLINK-5580,PAYLOAD,2024-08-12 12:24:39,14.98341121,0.0003081,69.9985,252.1875,262.149,97.9319,0.00022847,2.635e-05,0.0,0 STARLINK-5580,1 55748U 23028H   24225.51712850  .00002635  00000-0  22847-3 0  9990,2 55748  69.9985 252.1875 0003081 262.1490  97.9319 14.98341121 80036,6950.159,96.106,574.165,569.882,0.0
55748.0,STARLINK-5580,PAYLOAD,2024-08-12 18:49:11,14.98376833,0.0003021,69.9993,251.5125,273.3165,86.7648,-0.00060807,-7.35e-05,0.0,0 STARLINK-5580,1 55748U 23028H   24225.78415604 -.00007350  00000-0 -60807-3 0  9995,2 55748  69.9993 251.5125 0003021 273.3165  86.7648 14.98376833 80076,6950.048,96.104,574.013,569.813,0.0
55748.0,STARLINK-5580,PAYLOAD,2024-08-13 04:26:01,14.98331172,0.0002921,70.0009,250.5039,271.0476,89.0348,0.00017113,1.95e-05,0.0,0 STARLINK-5580,1 55748U 23028H   24226.18473448  .00001950  00000-0  17113-3 0  9990,2 55748  70.0009 250.5039 0002921 271.0476  89.0348 14.98331172 80135,6950.189,96.107,574.084,570.024,0.0
55748.0,STARLINK-5580,PAYLOAD,2024-08-13 12:26:41,14.98331935,0.0002812,69.9994,249.6635,261.6957,98.3884,0.0001565,1.775e-05,0.0,0 STARLINK-5580,1 55748U 23028H   24226.51853250  .00001775  00000-0  15650-3 0  9999,2 55748  69.9994 249.6635 0002812 261.6957  98.3884 14.98331935 80184,6950.187,96.107,574.006,570.098,0.0
55748.0,STARLINK-5580,PAYLOAD,2024-08-13 18:51:11,14.98382477,0.0003731,70.0008,248.9887,273.4946,86.5786,-0.00079817,-9.617e-05,0.0,0 STARLINK-5580,1 55748U 23028H   24226.78555175 -.00009617  00000-0 -79817-3 0  9993,2 55748  70.0008 248.9887 0003731 273.4946  86.5786 14.98382477 80226,6950.031,96.104,574.489,569.303,0.0
55748.0,STARLINK-5580,PAYLOAD,2024-08-14 04:28:02,14.98330146,0.0003127,69.9989,247.9793,268.0596,92.0205,-4.5203e-05,-6.32e-06,0.0,0 STARLINK-5580,1 55748U 23028H   24227.18613658 -.00000632  00000-0 -45203-4 0  9990,2 55748  69.9989 247.9793 0003127 268.0596  92.0205 14.98330146 80286,6950.192,96.107,574.231,569.884,0.0
55748.0,STARLINK-5580,PAYLOAD,2024-08-14 10:52:34,14.98331465,0.0003049,69.9988,247.3062,266.8172,93.2638,-4.6039e-06,-1.48e-06,0.0,0 STARLINK-5580,1 55748U 23028H   24227.45317418 -.00000148  00000-0 -46039-5 0  9996,2 55748  69.9988 247.3062 0003049 266.8172  93.2638 14.98331465 80320,6950.188,96.107,574.172,569.934,0.0
55748.0,STARLINK-5580,PAYLOAD,2024-08-15 04:30:03,14.983266,0.0003147,69.9983,245.4544,267.3073,92.7726,3.5944e-05,3.36e-06,0.0,0 STARLINK-5580,1 55748U 23028H   24228.18753641  .00000336  00000-0  35944-4 0  9998,2 55748  69.9983 245.4544 0003147 267.3073  92.7726 14.98326600 80433,6950.203,96.107,574.256,569.881,0.0
55748.0,STARLINK-5580,PAYLOAD,2024-08-15 09:18:27,14.98328543,0.0003132,69.9983,244.9492,266.9681,93.112,3.8119e-05,3.62e-06,0.0,0 STARLINK-5580,1 55748U 23028H   24228.38781554  .00000362  00000-0  38119-4 0  9990,2 55748  69.9983 244.9492 0003132 266.9681  93.1120 14.98328543 80467,6950.197,96.107,574.239,569.886,0.0
55748.0,STARLINK-5580,PAYLOAD,2024-08-15 18:55:15,14.98325759,0.0003155,69.9982,243.9387,265.509,94.5708,8.2853e-05,8.96e-06,0.0,0 STARLINK-5580,1 55748U 23028H   24228.78837659  .00000896  00000-0  82853-4 0  9998,2 55748  69.9982 243.9387 0003155 265.5090  94.5708 14.98325759 80522,6950.206,96.107,574.264,569.878,0.0
55748.0,STARLINK-5580,PAYLOAD,2024-08-16 04:32:04,14.98327435,0.0003209,69.998,242.9287,266.8405,93.2387,9.5491e-05,1.046e-05,0.0,0 STARLINK-5580,1 55748U 23028H   24229.18893561  .00001046  00000-0  95491-4 0  9997,2 55748  69.9980 242.9287 0003209 266.8405  93.2387 14.98327435 80580,6950.201,96.107,574.296,569.836,0.0
55748.0,STARLINK-5580,PAYLOAD,2024-08-16 09:20:28,14.98330443,0.000322,69.9981,242.4238,267.1685,92.9105,9.5343e-05,1.045e-05,0.0,0 STARLINK-5580,1 55748U 23028H   24229.38921394  .00001045  00000-0  95343-4 0  9990,2 55748  69.9981 242.4238 0003220 267.1685  92.9105 14.98330443 80610,6950.192,96.107,574.294,569.819,0.0
55748.0,STARLINK-5580,PAYLOAD,2024-08-17 04:34:04,14.98332043,0.0003201,69.9982,240.4036,266.9995,93.0797,0.00010405,1.149e-05,0.0,0 STARLINK-5580,1 55748U 23028H   24230.19033315  .00001149  00000-0  10405-3 0  9998,2 55748  69.9982 240.4036 0003201 266.9995  93.0797 14.98332043 80735,6950.187,96.107,574.276,569.827,0.0
55748.0,STARLINK-5580,PAYLOAD,2024-08-17 07:46:20,14.98331555,0.0003217,69.9983,240.0671,267.4652,92.6139,9.1615e-05,1e-05,0.0,0 STARLINK-5580,1 55748U 23028H   24230.32385377  .00001000  00000-0  91615-4 0  9990,2 55748  69.9983 240.0671 0003217 267.4652  92.6139 14.98331555 80754,6950.188,96.107,574.289,569.817,0.0
55748.0,STARLINK-5580,PAYLOAD,2024-08-18 04:36:05,14.98330571,0.0003092,69.9989,237.879,269.0205,91.06,4.9631e-05,4.99e-06,0.0,0 STARLINK-5580,1 55748U 23028H   24231.19173459  .00000499  00000-0  49631-4 0  9994,2 55748  69.9989 237.8790 0003092 269.0205  91.0600 14.98330571 80886,6950.191,96.107,574.205,569.907,0.0
55748.0,STARLINK-5580,PAYLOAD,2024-08-18 11:00:37,14.98332225,0.0003029,69.9992,237.2059,268.8133,91.2679,7.0868e-05,7.53e-06,0.0,0 STARLINK-5580,1 55748U 23028H   24231.45877280  .00000753  00000-0  70868-4 0  9995,2 55748  69.9992 237.2059 0003029 268.8133  91.2679 14.98332225 80920,6950.186,96.107,574.156,569.946,0.0
55748.0,STARLINK-5580,PAYLOAD,2024-08-19 04:38:07,14.98327149,0.000284,69.9999,235.3546,264.9892,95.0943,-3.8317e-06,-1.39e-06,0.0,0 STARLINK-5580,1 55748U 23028H   24232.19313742 -.00000139  00000-0 -38317-5 0  9999,2 55748  69.9999 235.3546 0002840 264.9892  95.0943 14.98327149 81034,6950.202,96.107,574.041,570.093,0.0
55748.0,STARLINK-5580,PAYLOAD,2024-08-19 09:26:31,14.98325678,0.0002887,69.9997,234.8494,266.3703,93.7126,-2.5476e-05,-3.97e-06,0.0,0 STARLINK-5580,1 55748U 23028H   24232.39341922 -.00000397  00000-0 -25476-4 0  9999,2 55748  69.9997 234.8494 0002887 266.3703  93.7126 14.98325678 81062,6950.206,96.107,574.078,570.065,0.0
55748.0,STARLINK-5580,PAYLOAD,2024-08-20 04:40:07,14.98332263,0.0002989,69.9993,232.8292,266.5497,93.532,7.1332e-05,7.58e-06,0.0,0 STARLINK-5580,1 55748U 23028H   24233.19453281  .00000758  00000-0  71332-4 0  9991,2 55748  69.9993 232.8292 0002989 266.5497  93.5320 14.98332263 81182,6950.186,96.107,574.128,569.973,0.0
55748.0,STARLINK-5580,PAYLOAD,2024-08-20 07:52:23,14.98332905,0.0002982,69.9993,232.4926,266.6057,93.4761,7.7032e-05,8.26e-06,0.0,0 STARLINK-5580,1 55748U 23028H   24233.32805216  .00000826  00000-0  77032-4 0  9994,2 55748  69.9993 232.4926 0002982 266.6057  93.4761 14.98332905 81202,6950.184,96.107,574.121,569.976,0.0
55748.0,STARLINK-5580,PAYLOAD,2024-08-21 04:42:08,14.98332767,0.0003064,69.9991,230.3045,267.688,92.3929,0.00013153,1.477e-05,0.0,0 STARLINK-5580,1 55748U 23028H   24234.19593013  .00001477  00000-0  13153-3 0  9995,2 55748  69.9991 230.3045 0003064 267.6880  92.3929 14.98332767 81330,6950.184,96.107,574.179,569.92,0.0
55748.0,STARLINK-5580,PAYLOAD,2024-08-21 09:30:32,14.98335282,0.0003026,69.9992,229.7997,267.3785,92.7028,0.00015749,1.787e-05,0.0,0 STARLINK-5580,1 55748U 23028H   24234.39620778  .00001787  00000-0  15749-3 0  9993,2 55748  69.9992 229.7997 0003026 267.3785  92.7028 14.98335282 81360,6950.177,96.107,574.145,569.938,0.0
55748.0,STARLINK-5580,PAYLOAD,2024-08-22 04:44:09,14.98329659,0.0002848,69.9997,227.7814,263.7695,96.314,-8.528e-06,-1.95e-06,0.0,0 STARLINK-5580,1 55748U 23028H   24235.19733422 -.00000195  00000-0 -85280-5 0  9996,2 55748  69.9997 227.7814 0002848 263.7695  96.3140 14.98329659 81481,6950.194,96.107,574.038,570.08,0.0
